NORAD_CAT_ID,OBJECT_NAME,OBJECT_TYPE,EPOCH,MEAN_MOTION,ECCENTRICITY,INCLINATION,RA_OF_ASC_NODE,ARG_OF_PERICENTER,MEAN_ANOMALY,BSTAR,MEAN_MOTION_DOT,MEAN_MOTION_DDOT,TLE_LINE0,TLE_LINE1,TLE_LINE2,SEMIMAJOR_AXIS,PERIOD,APOGEE,PERIGEE,DECAYED
52706.0,STARLINK-3970,PAYLOAD,2022-09-01 14:00:01,15.08833704,0.0001804,53.2159,143.1887,53.5787,82.214,0.0018614999999999,0.00029457,0.0,0 STARLINK-3970,1 52706U 22053BC  22244.58335648  .00029457  00000-0  18615-2 0  9998,2 52706  53.2159 143.1887 0001804  53.5787  82.2140 15.08833704  1307,6917.9,95.438,541.013,538.5169999999998,0.0
52706.0,STARLINK-3970,PAYLOAD,2022-09-01 22:00:00,15.0885247,0.0001885999999999,53.2159,141.6935,51.417,95.9141,-0.0026901,-0.00042862,0.0,0 STARLINK-3970,1 52706U 22053BC  22244.91667824 -.00042862  00000-0 -26901-2 0  9993,2 52706  53.2159 141.6935 0001886  51.4170  95.9141 15.08852470 16935,6917.842,95.437,541.012,538.403,0.0
52706.0,STARLINK-3970,PAYLOAD,2022-09-02 14:00:01,15.08816561,0.0001791,53.2153,138.6995,54.49100000000001,116.0251,0.0026814,0.00042618,0.0,0 STARLINK-3970,1 52706U 22053BC  22245.58334491  .00042618  00000-0  26814-2 0  9998,2 52706  53.2153 138.6995 0001791  54.4910 116.0251 15.08816561 17031,6917.9519999999975,95.439,541.056,538.578,0.0
52706.0,STARLINK-3970,PAYLOAD,2022-09-02 22:00:01,15.0885228,0.0001935,53.2155,137.2044,52.8105,129.3546,-0.0012331,-0.00019866,0.0,0 STARLINK-3970,1 52706U 22053BC  22245.91668981 -.00019866  00000-0 -12331-2 0  9999,2 52706  53.2155 137.2044 0001935  52.8105 129.3546 15.08852280  1306,6917.843000000003,95.437,541.0459999999998,538.369,0.0
52706.0,STARLINK-3970,PAYLOAD,2022-09-03 06:00:00,15.0885238,0.0001984,53.2152,135.7082,49.692,144.01,0.00031401,4.715e-05,0.0,0 STARLINK-3970,1 52706U 22053BC  22246.25001157  .00004715  00000-0  31401-3 0  9998,2 52706  53.2152 135.7082 0001984  49.6920 144.0100 15.08852380 17130,6917.843000000003,95.437,541.08,538.335,0.0
52706.0,STARLINK-3970,PAYLOAD,2022-09-03 14:00:01,15.08847809,0.0001829,53.2152,134.2101,55.5645,149.7542,0.00071224,0.00011068,0.0,0 STARLINK-3970,1 52706U 22053BC  22246.58334491  .00011068  00000-0  71224-3 0  9990,2 52706  53.2152 134.2101 0001829  55.5645 149.7542 15.08847809  1308,6917.857,95.437,540.987,538.456,0.0
52706.0,STARLINK-3970,PAYLOAD,2022-09-03 22:00:00,15.08845797,0.0001925,53.2154,132.7152,51.8685,165.0652,-0.00088808,-0.00014397,0.0,0 STARLINK-3970,1 52706U 22053BC  22246.91667824 -.00014397  00000-0 -88808-3 0  9992,2 52706  53.2154 132.7152 0001925  51.8685 165.0652 15.08845797  1306,6917.863,95.437,541.059,538.396,0.0
52706.0,STARLINK-3970,PAYLOAD,2022-09-04 12:00:00,15.08836302,0.0001748,53.2157,130.0952,51.841,95.4104,0.00037693,5.715e-05,0.0,0 STARLINK-3970,1 52706U 22053BC  22247.50001157  .00005715  00000-0  37693-3 0  9997,2 52706  53.2157 130.0952 0001748  51.8410  95.4104 15.08836302 17326,6917.892,95.438,540.966,538.547,0.0
52706.0,STARLINK-3970,PAYLOAD,2022-09-04 14:00:01,15.08821425,0.0001759,53.2156,129.7207,53.0867,187.1316,0.0023472,0.00037247,0.0,0 STARLINK-3970,1 52706U 22053BC  22247.58335648  .00037247  00000-0  23472-2 0  9994,2 52706  53.2156 129.7207 0001759  53.0867 187.1316 15.08821425  1300,6917.937,95.439,541.019,538.585,0.0
52706.0,STARLINK-3970,PAYLOAD,2022-09-04 20:00:01,15.08870919,0.000182,53.216,128.5996,51.0549,107.7898,-0.0029498,-0.00046969,0.0,0 STARLINK-3970,1 52706U 22053BC  22247.83334491 -.00046969  00000-0 -29498-2 0  9994,2 52706  53.2160 128.5996 0001820  51.0549 107.7898 15.08870919  1306,6917.786,95.436,540.91,538.3919999999998,0.0
52706.0,STARLINK-3970,PAYLOAD,2022-09-05 14:00:01,15.08838964,0.0001768,53.2164,125.2316,52.0485,222.9103,0.00038369,5.823e-05,0.0,0 STARLINK-3970,1 52706U 22053BC  22248.58334491  .00005823  00000-0  38369-3 0  9997,2 52706  53.2164 125.2316 0001768  52.0485 222.9103 15.08838964  1304,6917.884,95.438,540.972,538.525,0.0
52706.0,STARLINK-3970,PAYLOAD,2022-09-05 20:00:01,15.08854118,0.0001891,53.2167,124.1106,50.7526,142.8964,-0.0042001999999999,-0.00066544,0.0,0 STARLINK-3970,1 52706U 22053BC  22248.83334491 -.00066544  00000-0 -42002-2 0  9992,2 52706  53.2167 124.1106 0001891  50.7526 142.8964 15.08854118 17525,6917.837,95.437,541.01,538.394,0.0
52706.0,STARLINK-3970,PAYLOAD,2022-09-05 22:00:00,15.08837144,0.0001950999999999,53.2166,123.737,48.8231,237.7274,-0.0030043,-0.00047782,0.0,0 STARLINK-3970,1 52706U 22053BC  22248.91667824 -.00047782  00000-0 -30043-2 0  9995,2 52706  53.2166 123.7370 0001951  48.8231 237.7274 15.08837144  1307,6917.889,95.438,541.104,538.404,0.0
52706.0,STARLINK-3970,PAYLOAD,2022-09-06 04:00:00,15.08800464,0.0001950999999999,53.2166,122.6151,45.2166,160.018,0.0020618,0.00032643,0.0,0 STARLINK-3970,1 52706U 22053BC  22249.16667824  .00032643  00000-0  20618-2 0  9998,2 52706  53.2166 122.6151 0001951  45.2166 160.0180 15.08800464 17575,6918.001,95.44,541.216,538.5169999999998,0.0
52706.0,STARLINK-3970,PAYLOAD,2022-09-06 14:00:01,15.08803926,0.0001801,53.217,120.7428,52.728,256.9643,0.0031476,0.00050113,0.0,0 STARLINK-3970,1 52706U 22053BC  22249.58334491  .00050113  00000-0  31476-2 0  9991,2 52706  53.2170 120.7428 0001801  52.7280 256.9643 15.08803926  1309,6917.991,95.44,541.102,538.61,0.0
52706.0,STARLINK-3970,PAYLOAD,2022-09-06 22:00:00,15.08831679,0.0001968,53.2171,119.2483,48.5742,272.6881,-0.00027963,-4.735e-05,0.0,0 STARLINK-3970,1 52706U 22053BC  22249.91667824 -.00004735  00000-0 -27963-3 0  9995,2 52706  53.2171 119.2483 0001968  48.5742 272.6881 15.08831679 17687,6917.906,95.438,541.132,538.409,0.0
52706.0,STARLINK-3970,PAYLOAD,2022-09-07 14:00:01,15.08801614,0.0001727,53.2173,116.254,52.3689,292.0672,0.0028012,0.00044528,0.0,0 STARLINK-3970,1 52706U 22053BC  22250.58334491  .00044528  00000-0  28012-2 0  9998,2 52706  53.2173 116.2540 0001727  52.3689 292.0672 15.08801614  1308,6917.998000000001,95.44,541.057,538.668,0.0
52706.0,STARLINK-3970,PAYLOAD,2022-09-07 22:00:00,15.08825656,0.0001904,53.2172,114.7595,47.8178,308.1854,-0.00033688,-5.644e-05,0.0,0 STARLINK-3970,1 52706U 22053BC  22250.91667824 -.00005644  00000-0 -33688-3 0  9998,2 52706  53.2172 114.7595 0001904  47.8178 308.1854 15.08825656  1302,6917.924,95.438,541.106,538.472,0.0
52706.0,STARLINK-3970,PAYLOAD,2022-09-08 06:00:00,15.08849921,0.0001847,53.2168,113.2626,47.3188,320.2601,-0.0016469,-0.0002641,0.0,0 STARLINK-3970,1 52706U 22053BC  22251.25001157 -.00026410  00000-0 -16469-2 0  9998,2 52706  53.2168 113.2626 0001847  47.3188 320.2601 15.08849921 17884,6917.85,95.437,540.993,538.437,0.0
52706.0,STARLINK-3970,PAYLOAD,2022-09-08 14:00:01,15.08850312,0.0001889,53.2173,111.7574,46.8235,332.353,-0.0011805,-0.00019032,0.0,0 STARLINK-3970,1 52706U 22053BC  22251.58334491 -.00019032  00000-0 -11805-2 0  9995,2 52706  53.2173 111.7574 0001889  46.8235 332.3530 15.08850312  1309,6917.849,95.437,541.021,538.4069999999998,0.0
52706.0,STARLINK-3970,PAYLOAD,2022-09-08 22:00:00,15.08848159,0.0001905,53.2167,110.2705,49.3643,341.4092,-3.4102e-05,-8.31e-06,0.0,0 STARLINK-3970,1 52706U 22053BC  22251.91667824 -.00000831  00000-0 -34102-4 0  9995,2 52706  53.2167 110.2705 0001905  49.3643 341.4092 15.08848159 17983,6917.855,95.437,541.038,538.403,0.0
52706.0,STARLINK-3970,PAYLOAD,2022-09-09 14:00:01,15.08827773,0.000165,53.2163,107.276,54.1359,359.8582,0.0021116999999999,0.00033469,0.0,0 STARLINK-3970,1 52706U 22053BC  22252.58334491  .00033469  00000-0  21117-2 0  9991,2 52706  53.2163 107.2760 0001650  54.1359 359.8582 15.08827773  1306,6917.918000000002,95.438,540.924,538.641,0.0
52706.0,STARLINK-3970,PAYLOAD,2022-09-09 22:00:00,15.08842513,0.0001811999999999,53.216,105.7813,48.423,17.1673,0.00013751,1.901e-05,0.0,0 STARLINK-3970,1 52706U 22053BC  22252.91667824  .00001901  00000-0  13751-3 0  9999,2 52706  53.2160 105.7813 0001812  48.4230  17.1673 15.08842513  1303,6917.873000000001,95.437,540.991,538.484,0.0
52706.0,STARLINK-3970,PAYLOAD,2022-09-10 04:00:00,15.08867059,0.0001744,53.2155,104.6585,45.3917,298.8873,-0.0037268,-0.00059158,0.0,0 STARLINK-3970,1 52706U 22053BC  22253.16667824 -.00059158  00000-0 -37268-2 0  9994,2 52706  53.2155 104.6585 0001744  45.3917 298.8873 15.08867059 18178,6917.7980000000025,95.436,540.869,538.456,0.0
52706.0,STARLINK-3970,PAYLOAD,2022-09-10 14:00:01,15.08821176,0.00016,53.2156,102.7865,52.8415,35.9292,0.0014994,0.00023643,0.0,0 STARLINK-3970,1 52706U 22053BC  22253.58334491  .00023643  00000-0  14994-2 0  9990,2 52706  53.2156 102.7865 0001600  52.8415  35.9292 15.08821176  1308,6917.938,95.439,540.91,538.696,0.0
52706.0,STARLINK-3970,PAYLOAD,2022-09-10 22:00:00,15.08826365,0.0001781,53.2155,101.2919,47.0304,53.3264,0.0006843999999999,0.00010617,0.0,0 STARLINK-3970,1 52706U 22053BC  22253.91667824  .00010617  00000-0  68440-3 0  9999,2 52706  53.2155 101.2919 0001781  47.0304  53.3264 15.08826365  1302,6917.922,95.438,541.019,538.555,0.0
52706.0,STARLINK-3970,PAYLOAD,2022-09-11 14:00:01,15.08854847,0.0001661,53.2154,98.2969,52.5585,70.9822,0.0001242,1.6899999999999994e-05,0.0,0 STARLINK-3970,1 52706U 22053BC  22254.58334491  .00001690  00000-0  12420-3 0  9992,2 52706  53.2154  98.2969 0001661  52.5585  70.9822 15.08854847 18398,6917.835,95.437,540.849,538.5509999999998,0.0
52706.0,STARLINK-3970,PAYLOAD,2022-09-11 22:00:00,15.08830992,0.0001801,53.2155,96.8022,45.2933,89.8687,0.00013021,1.784e-05,0.0,0 STARLINK-3970,1 52706U 22053BC  22254.91667824  .00001784  00000-0  13021-3 0  9990,2 52706  53.2155  96.8022 0001801  45.2933  89.8687 15.08830992  1301,6917.908,95.438,541.019,538.5269999999998,0.0
52706.0,STARLINK-3970,PAYLOAD,2022-09-12 06:00:00,15.08853278,0.0001732,53.2154,95.3044,46.62300000000001,100.1236,-0.0038277999999999,-0.00060717,0.0,0 STARLINK-3970,1 52706U 22053BC  22255.25001157 -.00060717  00000-0 -38278-2 0  9992,2 52706  53.2154  95.3044 0001732  46.6230 100.1236 15.08853278 18493,6917.84,95.437,540.903,538.507,0.0
